{
    "links": {
        "self": "http://www.neowsapp.com/rest/v1/neo/3548240?api_key=iIulBulltgU6a56xZRHN4H3l9WmuAYTsLGpBGhQ2"
    },
    "id": "3548240",
    "neo_reference_id": "3548240",
    "name": "(2010 TP19)",
    "designation": "2010 TP19",
    "nasa_jpl_url": "http://ssd.jpl.nasa.gov/sbdb.cgi?sstr=3548240",
    "absolute_magnitude_h": 23.7,
    "estimated_diameter": {
        "kilometers": {
            "estimated_diameter_min": 0.0483676488,
            "estimated_diameter_max": 0.1081533507
        },
        "meters": {
            "estimated_diameter_min": 48.3676488219,
            "estimated_diameter_max": 108.1533506775
        },
        "miles": {
            "estimated_diameter_min": 0.0300542543,
            "estimated_diameter_max": 0.0672033557
        },
        "feet": {
            "estimated_diameter_min": 158.6865169607,
            "estimated_diameter_max": 354.8338390368
        }
    },
    "is_potentially_hazardous_asteroid": false,
    "close_approach_data": [
        {
            "close_approach_date": "2010-09-21",
            "close_approach_date_full": "2010-Sep-21 16:27",
            "epoch_date_close_approach": 1285086420000,
            "relative_velocity": {
                "kilometers_per_second": "14.6276871111",
                "kilometers_per_hour": "52659.6736000298",
                "miles_per_hour": "32720.673298863"
            },
            "miss_distance": {
                "astronomical": "0.100281995",
                "lunar": "39.009696055",
                "kilometers": "15001972.85135065",
                "miles": "9321793.67251297"
            },
            "orbiting_body": "Earth"
        }
    ],
    "orbital_data": {
        "orbit_id": "6",
        "orbit_determination_date": "2017-04-06 08:56:24",
        "first_observation_date": "2010-10-07",
        "last_observation_date": "2010-10-08",
        "data_arc_in_days": 1,
        "observations_used": 22,
        "orbit_uncertainty": "9",
        "minimum_orbit_intersection": ".0989855",
        "jupiter_tisserand_invariant": "4.069",
        "epoch_osculation": "2455477.5",
        "eccentricity": ".4225538454276999",
        "semi_major_axis": "1.673745399829176",
        "inclination": "20.9073776522589",
        "ascending_node_longitude": "6.860397591760075",
        "orbital_period": "790.9199340251319",
        "perihelion_distance": ".9664978448644345",
        "perihelion_argument": "300.3839263665704",
        "aphelion_distance": "2.380992954793917",
        "perihelion_time": "2455417.762458440161",
        "mean_anomaly": "27.19050821250219",
        "mean_motion": ".4551661736073538",
        "equinox": "J2000",
        "orbit_class": {
            "orbit_class_type": "APO",
            "orbit_class_description": "Near-Earth asteroid orbits which cross the Earth’s orbit similar to that of 1862 Apollo",
            "orbit_class_range": "a (semi-major axis) > 1.0 AU; q (perihelion) < 1.017 AU"
        }
    },
    "is_sentry_object": false
}